CTC2_L_00164016-03
1 67158U 22848YJ  26037.47791667  .00000000  00000+0  00000-0 0  9995
2 67158  40.0000 180.0000 0000000   0.0000   0.0000 14.89338779    12
CTC2_L_00164016-04
1 67159U 22456KV  26037.47791667  .00000000  00000+0  00000-0 0  9991
2 67159  40.0000 180.0000 0000000   0.0000  90.0000 14.89338779    12
CTC2_L_00164017-01
1 67160U 22549LA  26037.47791667  .00000000  00000+0  00000-0 0  9996
2 67160  40.0000 192.0000 0000000   0.0000 192.0000 14.89338779    10
CTC2_L_00164017-02
1 67161U 25449BS  26037.47791667  .00000000  00000+0  00000-0 0  9999
2 67161  40.0000 192.0000 0000000   0.0000 282.0000 14.89338779    11
CTC2_L_00164017-03
1 67162U 22461BN  26037.47791667  .00000000  00000+0  00000-0 0  9991
2 67162  40.0000 192.0000 0000000   0.0000  12.0000 14.89338779    13
CTC2_L_00164017-04
1 67163U 23455OK  26037.47791667  .00000000  00000+0  00000-0 0  9996
2 67163  40.0000 192.0000 0000000   0.0000 102.0000 14.89338779    14
CTC2_L_00164018-01
1 67164U 23633GY  26037.47791667  .00000000  00000+0  00000-0 0  9995
2 67164  40.0000 204.0000 0000000   0.0000 204.0000 14.89338779    12
CTC2_L_00164018-02
1 67165U 26405ZZ  26037.47791667  .00000000  00000+0  00000-0 0  9996
2 67165  40.0000 204.0000 0000000   0.0000 294.0000 14.89338779    12
CTC2_L_00164018-03
1 67166U 25644OH  26037.47791667  .00000000  00000+0  00000-0 0  9991
2 67166  40.0000 204.0000 0000000   0.0000  24.0000 14.89338779    14
CTC2_L_00164018-04
1 67167U 26516KY  26037.47791667  .00000000  00000+0  00000-0 0  9991
2 67167  40.0000 204.0000 0000000   0.0000 114.0000 14.89338779    15
CTC2_L_00164019-01
1 67168U 26281GB  26037.47791667  .00000000  00000+0  00000-0 0  9991
2 67168  40.0000 216.0000 0000000   0.0000 216.0000 14.89338779    12
CTC2_L_00164019-02
1 67169U 26082YH  26037.47791667  .00000000  00000+0  00000-0 0  9991
2 67169  40.0000 216.0000 0000000   0.0000 306.0000 14.89338779    13
CTC2_L_00164019-03
1 67170U 22423DW  26037.47791667  .00000000  00000+0  00000-0 0  9998
2 67170  40.0000 216.0000 0000000   0.0000  36.0000 14.89338779    15
CTC2_L_00164019-04
1 67171U 23761ZR  26037.47791667  .00000000  00000+0  00000-0 0  9995
2 67171  40.0000 216.0000 0000000   0.0000 126.0000 14.89338779    16
CTC2_L_00164020-01
1 67172U 23317SN  26037.47791667  .00000000  00000+0  00000-0 0  9993
2 67172  40.0000 228.0000 0000000   0.0000 228.0000 14.89338779    13
CTC2_L_00164020-02
1 67173U 22353TK  26037.47791667  .00000000  00000+0  00000-0 0  9993
2 67173  40.0000 228.0000 0000000   0.0000 318.0000 14.89338779    14
CTC2_L_00164020-03
1 67174U 25132XS  26037.47791667  .00000000  00000+0  00000-0 0  9992
2 67174  40.0000 228.0000 0000000   0.0000  48.0000 14.89338779    15
CTC2_L_00164020-04
1 67175U 24964TG  26037.47791667  .00000000  00000+0  00000-0 0  9995
2 67175  40.0000 228.0000 0000000   0.0000 138.0000 14.89338779    16
CTC2_L_00164021-01
1 67176U 26533SM  26037.47791667  .00000000  00000+0  00000-0 0  9990
2 67176  40.0000 240.0000 0000000   0.0000 240.0000 14.89338779    15
CTC2_L_00164021-02
1 67177U 24631JM  26037.47791667  .00000000  00000+0  00000-0 0  9998
2 67177  40.0000 240.0000 0000000   0.0000 330.0000 14.89338779    16
CTC2_L_00164021-03
1 67178U 22653ME  26037.47791667  .00000000  00000+0  00000-0 0  9991
2 67178  40.0000 240.0000 0000000   0.0000  60.0000 14.89338779    17
CTC2_L_00164021-04
1 67179U 25619IX  26037.47791667  .00000000  00000+0  00000-0 0  9997
2 67179  40.0000 240.0000 0000000   0.0000 150.0000 14.89338779    18
CTC2_L_00164022-01
1 67180U 22430ZW  26037.47791667  .00000000  00000+0  00000-0 0  9997
2 67180  40.0000 252.0000 0000000   0.0000 252.0000 14.89338779    16
CTC2_L_00164022-02
1 67181U 25935GZ  26037.47791667  .00000000  00000+0  00000-0 0  9991
2 67181  40.0000 252.0000 0000000   0.0000 342.0000 14.89338779    17
CTC2_L_00164022-03
1 67182U 24884YV  26037.47791667  .00000000  00000+0  00000-0 0  9994
2 67182  40.0000 252.0000 0000000   0.0000  72.0000 14.89338779    18
CTC2_L_00164022-04
1 67183U 25600SE  26037.47791667  .00000000  00000+0  00000-0 0  9992
2 67183  40.0000 252.0000 0000000   0.0000 162.0000 14.89338779    19
CTC2_L_00164023-01
1 67184U 25848LS  26037.47791667  .00000000  00000+0  00000-0 0  9997
2 67184  40.0000 264.0000 0000000   0.0000 264.0000 14.89338779    16
CTC2_L_00164023-02
1 67185U 23676LV  26037.47791667  .00000000  00000+0  00000-0 0  9995
2 67185  40.0000 264.0000 0000000   0.0000 354.0000 14.89338779    17
CTC2_L_00164023-03
1 67186U 26914QH  26037.47791667  .00000000  00000+0  00000-0 0  9994
2 67186  40.0000 264.0000 0000000   0.0000  84.0000 14.89338779    18
CTC2_L_00164023-04
1 67187U 22172DV  26037.47791667  .00000000  00000+0  00000-0 0  9997
2 67187  40.0000 264.0000 0000000   0.0000 174.0000 14.89338779    19
CTC2_L_00164024-01
1 67188U 24059PR  26037.47791667  .00000000  00000+0  00000-0 0  9994
2 67188  40.0000 276.0000 0000000   0.0000 276.0000 14.89338779    16
CTC2_L_00164024-02
1 67189U 22663JM  26037.47791667  .00000000  00000+0  00000-0 0  9994
2 67189  40.0000 276.0000 0000000   0.0000   6.0000 14.89338779    18
CTC2_L_00164024-03
1 67190U 24178ZR  26037.47791667  .00000000  00000+0  00000-0 0  9999
2 67190  40.0000 276.0000 0000000   0.0000  96.0000 14.89338779    19
CTC2_L_00164024-04
1 67191U 24011SM  26037.47791667  .00000000  00000+0  00000-0 0  9996
2 67191  40.0000 276.0000 0000000   0.0000 186.0000 14.89338779    10
CTC2_L_00164025-01
1 67192U 25220ZQ  26037.47791667  .00000000  00000+0  00000-0 0  9990
2 67192  40.0000 288.0000 0000000   0.0000 288.0000 14.89338779    17
CTC2_L_00164025-02
1 67193U 25555HC  26037.47791667  .00000000  00000+0  00000-0 0  9992
2 67193  40.0000 288.0000 0000000   0.0000  18.0000 14.89338779    19
CTC2_L_00164025-03
1 67194U 25256AH  26037.47791667  .00000000  00000+0  00000-0 0  9991
2 67194  40.0000 288.0000 0000000   0.0000 108.0000 14.89338779    10
CTC2_L_00164025-04
1 67195U 25858PG  26037.47791667  .00000000  00000+0  00000-0 0  9990
2 67195  40.0000 288.0000 0000000   0.0000 198.0000 14.89338779    10
CTC2_L_00164026-01
1 67196U 23269SS  26037.47791667  .00000000  00000+0  00000-0 0  9995
2 67196  40.0000 300.0000 0000000   0.0000 300.0000 14.89338779    11
CTC2_L_00164026-02
1 67197U 23017VE  26037.47791667  .00000000  00000+0  00000-0 0  9997
2 67197  40.0000 300.0000 0000000   0.0000  30.0000 14.89338779    12
CTC2_L_00164026-03
1 67198U 22242NK  26037.47791667  .00000000  00000+0  00000-0 0  9997
2 67198  40.0000 300.0000 0000000   0.0000 120.0000 14.89338779    13
CTC2_L_00164026-04
1 67199U 24565UZ  26037.47791667  .00000000  00000+0  00000-0 0  9998
2 67199  40.0000 300.0000 0000000   0.0000 210.0000 14.89338779    14
CTC2_L_00164027-01
1 67200U 24460PP  26037.47791667  .00000000  00000+0  00000-0 0  9995
2 67200  40.0000 312.0000 0000000   0.0000 312.0000 14.89338779    13
CTC2_L_00164027-02
1 67201U 26127WU  26037.47791667  .00000000  00000+0  00000-0 0  9998
2 67201  40.0000 312.0000 0000000   0.0000  42.0000 14.89338779    14
CTC2_L_00164027-03
1 67202U 24243ZX  26037.47791667  .00000000  00000+0  00000-0 0  9996
2 67202  40.0000 312.0000 0000000   0.0000 132.0000 14.89338779    15
CTC2_L_00164027-04
1 67203U 25643UN  26037.47791667  .00000000  00000+0  00000-0 0  9992
2 67203  40.0000 312.0000 0000000   0.0000 222.0000 14.89338779    16
CTC2_L_00164028-01
1 67204U 22353MB  26037.47791667  .00000000  00000+0  00000-0 0  9998
2 67204  40.0000 324.0000 0000000   0.0000 324.0000 14.89338779    13
CTC2_L_00164028-02
1 67205U 24026ZU  26037.47791667  .00000000  00000+0  00000-0 0  9998
2 67205  40.0000 324.0000 0000000   0.0000  54.0000 14.89338779    14
CTC2_L_00164028-03
1 67206U 26549BG  26037.47791667  .00000000  00000+0  00000-0 0  9991
2 67206  40.0000 324.0000 0000000   0.0000 144.0000 14.89338779    15
CTC2_L_00164028-04
1 67207U 25216KS  26037.47791667  .00000000  00000+0  00000-0 0  9992
2 67207  40.0000 324.0000 0000000   0.0000 234.0000 14.89338779    16
CTC2_L_00164029-01
1 67208U 23912EJ  26037.47791667  .00000000  00000+0  00000-0 0  9994
2 67208  40.0000 336.0000 0000000   0.0000 336.0000 14.89338779    13
CTC2_L_00164029-02
1 67209U 23984VK  26037.47791667  .00000000  00000+0  00000-0 0  9994
2 67209  40.0000 336.0000 0000000   0.0000  66.0000 14.89338779    14
CTC2_L_00164029-03
1 67210U 26275UY  26037.47791667  .00000000  00000+0  00000-0 0  9992
2 67210  40.0000 336.0000 0000000   0.0000 156.0000 14.89338779    16
CTC2_L_00164029-04
1 67211U 24360AE  26037.47791667  .00000000  00000+0  00000-0 0  9996
2 67211  40.0000 336.0000 0000000   0.0000 246.0000 14.89338779    17
CTC2_L_00164030-01
1 67212U 26293GK  26037.47791667  .00000000  00000+0  00000-0 0  9994
2 67212  40.0000 348.0000 0000000   0.0000 348.0000 14.89338779    14
CTC2_L_00164030-02
1 67213U 23885LQ  26037.47791667  .00000000  00000+0  00000-0 0  9999
2 67213  40.0000 348.0000 0000000   0.0000  78.0000 14.89338779    15
CTC2_L_00164030-03
1 67214U 24834AE  26037.47791667  .00000000  00000+0  00000-0 0  9995
2 67214  40.0000 348.0000 0000000   0.0000 168.0000 14.89338779    16
CTC2_L_00164030-04
1 67215U 25336PD  26037.47791667  .00000000  00000+0  00000-0 0  9994
2 67215  40.0000 348.0000 0000000   0.0000 258.0000 14.89338779    17
